{
    "links": {
        "self": "http://www.neowsapp.com/rest/v1/neo/54050969?api_key=iIulBulltgU6a56xZRHN4H3l9WmuAYTsLGpBGhQ2"
    },
    "id": "54050969",
    "neo_reference_id": "54050969",
    "name": "(2020 PS)",
    "designation": "2020 PS",
    "nasa_jpl_url": "http://ssd.jpl.nasa.gov/sbdb.cgi?sstr=54050969",
    "absolute_magnitude_h": 24.529,
    "estimated_diameter": {
        "kilometers": {
            "estimated_diameter_min": 0.0330183203,
            "estimated_diameter_max": 0.0738312088
        },
        "meters": {
            "estimated_diameter_min": 33.0183203336,
            "estimated_diameter_max": 73.8312087688
        },
        "miles": {
            "estimated_diameter_min": 0.0205166267,
            "estimated_diameter_max": 0.045876572
        },
        "feet": {
            "estimated_diameter_min": 108.3278260832,
            "estimated_diameter_max": 242.2283829769
        }
    },
    "is_potentially_hazardous_asteroid": false,
    "close_approach_data": [
        {
            "close_approach_date": "2003-01-30",
            "close_approach_date_full": "2003-Jan-30 00:47",
            "epoch_date_close_approach": 1043887620000,
            "relative_velocity": {
                "kilometers_per_second": "3.191635575",
                "kilometers_per_hour": "11489.8880701612",
                "miles_per_hour": "7139.3696178177"
            },
            "miss_distance": {
                "astronomical": "1.419988048",
                "lunar": "552.375350672",
                "kilometers": "212427187.40625776",
                "miles": "131996133.512206688"
            },
            "orbiting_body": "Juptr"
        },
        {
            "close_approach_date": "2014-09-21",
            "close_approach_date_full": "2014-Sep-21 03:30",
            "epoch_date_close_approach": 1411270200000,
            "relative_velocity": {
                "kilometers_per_second": "3.5411236941",
                "kilometers_per_hour": "12748.0452989277",
                "miles_per_hour": "7921.1395914365"
            },
            "miss_distance": {
                "astronomical": "1.5315593793",
                "lunar": "595.7765985477",
                "kilometers": "229118020.921802091",
                "miles": "142367336.5396912158"
            },
            "orbiting_body": "Juptr"
        },
        {
            "close_approach_date": "2020-08-19",
            "close_approach_date_full": "2020-Aug-19 00:11",
            "epoch_date_close_approach": 1597795860000,
            "relative_velocity": {
                "kilometers_per_second": "8.8066403373",
                "kilometers_per_hour": "31703.9052141768",
                "miles_per_hour": "19699.5737704423"
            },
            "miss_distance": {
                "astronomical": "0.0159958398",
                "lunar": "6.2223816822",
                "kilometers": "2392943.562941226",
                "miles": "1486906.1812558788"
            },
            "orbiting_body": "Earth"
        },
        {
            "close_approach_date": "2026-04-22",
            "close_approach_date_full": "2026-Apr-22 09:17",
            "epoch_date_close_approach": 1776849420000,
            "relative_velocity": {
                "kilometers_per_second": "4.4225885336",
                "kilometers_per_hour": "15921.3187209942",
                "miles_per_hour": "9892.8882908311"
            },
            "miss_distance": {
                "astronomical": "1.8756955653",
                "lunar": "729.6455749017",
                "kilometers": "280600061.337325911",
                "miles": "174356793.0830871318"
            },
            "orbiting_body": "Juptr"
        },
        {
            "close_approach_date": "2043-09-30",
            "close_approach_date_full": "2043-Sep-30 11:37",
            "epoch_date_close_approach": 2327225820000,
            "relative_velocity": {
                "kilometers_per_second": "17.3760367864",
                "kilometers_per_hour": "62553.7324311818",
                "miles_per_hour": "38868.4566875863"
            },
            "miss_distance": {
                "astronomical": "0.25966164",
                "lunar": "101.00837796",
                "kilometers": "38844828.2647068",
                "miles": "24137057.03348184"
            },
            "orbiting_body": "Earth"
        }
    ],
    "orbital_data": {
        "orbit_id": "20",
        "orbit_determination_date": "2020-10-26 09:35:46",
        "first_observation_date": "2020-08-10",
        "last_observation_date": "2020-09-17",
        "data_arc_in_days": 38,
        "observations_used": 122,
        "orbit_uncertainty": "6",
        "minimum_orbit_intersection": ".0139451",
        "jupiter_tisserand_invariant": "3.219",
        "epoch_osculation": "2459000.5",
        "eccentricity": ".5884508841085619",
        "semi_major_axis": "2.46267205774104",
        "inclination": "6.199326697961068",
        "ascending_node_longitude": "153.6791972035432",
        "orbital_period": "1411.589115787473",
        "perihelion_distance": "1.013510508093874",
        "perihelion_argument": "163.4553883505716",
        "aphelion_distance": "3.911833607388206",
        "perihelion_time": "2459072.827630441913",
        "mean_anomaly": "341.5541600116667",
        "mean_motion": ".2550317199060929",
        "equinox": "J2000",
        "orbit_class": {
            "orbit_class_type": "APO",
            "orbit_class_description": "Near-Earth asteroid orbits which cross the Earth’s orbit similar to that of 1862 Apollo",
            "orbit_class_range": "a (semi-major axis) > 1.0 AU; q (perihelion) < 1.017 AU"
        }
    },
    "is_sentry_object": false
}